start=new Date('2023-05-09T00:00:00.000Z').valueOf();
sats=[{"INCLINATION":"70.0028","EPOCH":"2023-05-08T20:11:44.996928","OBJECT_TYPE":"PAYLOAD","EPHEMERIS_TYPE":"0","CENTER_NAME":"EARTH","SEMIMAJOR_AXIS":"6737.244","COUNTRY_CODE":"US","CLASSIFICATION_TYPE":"U","FILE":"3904305","MEAN_MOTION_DOT":"0.00002113","TLE_LINE2":"2 55958  70.0028  34.6514 0003086 266.5765  93.5078 15.69926659  8365","TIME_SYSTEM":"UTC","LAUNCH_DATE":"2023-03-17","MEAN_ANOMALY":"93.5078","MEAN_ELEMENT_THEORY":"SGP4","ELEMENT_SET_NO":"999","REV_AT_EPOCH":"836","OBJECT_ID":"2023-037AW","ARG_OF_PERICENTER":"266.5765","SITE":"AFWTR","MEAN_MOTION":"15.69926659","NORAD_CAT_ID":"55958","DECAY_DATE":null,"APOAPSIS":"361.188","REF_FRAME":"TEME","RCS_SIZE":"LARGE","PERIOD":"91.724","TLE_LINE1":"1 55958U 23037AW  23128.84149302  .00002113  00000-0  19331-4 0  9992","PERIAPSIS":"357.030","GP_ID":"231477326","MEAN_MOTION_DDOT":"0.0000000000000","BSTAR":"0.00001933100000","ECCENTRICITY":"0.00030860","RA_OF_ASC_NODE":"34.6514","OBJECT_NAME":"STARLINK-5928"},{"COUNTRY_CODE":"US","CLASSIFICATION_TYPE":"U","SEMIMAJOR_AXIS":"6737.246","CENTER_NAME":"EARTH","EPHEMERIS_TYPE":"0","OBJECT_TYPE":"PAYLOAD","INCLINATION":"70.0016","EPOCH":"2023-05-08T20:11:35.714976","TIME_SYSTEM":"UTC","LAUNCH_DATE":"2023-03-17","MEAN_ELEMENT_THEORY":"SGP4","MEAN_ANOMALY":"93.1977","ELEMENT_SET_NO":"999","TLE_LINE2":"2 55959  70.0016  34.6500 0003629 266.8804  93.1977 15.69925842  8365","MEAN_MOTION_DOT":"0.00000347","FILE":"3904305","PERIAPSIS":"356.666","TLE_LINE1":"1 55959U 23037AX  23128.84138559  .00000347  00000-0  46526-5 0  9999","GP_ID":"231478083","REF_FRAME":"TEME","RCS_SIZE":"LARGE","PERIOD":"91.724","APOAPSIS":"361.556","DECAY_DATE":null,"MEAN_MOTION":"15.69925842","NORAD_CAT_ID":"55959","SITE":"AFWTR","ARG_OF_PERICENTER":"266.8804","OBJECT_ID":"2023-037AX","REV_AT_EPOCH":"836","RA_OF_ASC_NODE":"34.6500","OBJECT_NAME":"STARLINK-5929","ECCENTRICITY":"0.00036290","BSTAR":"0.00000465260000","MEAN_MOTION_DDOT":"0.0000000000000"},{"SEMIMAJOR_AXIS":"6737.267","COUNTRY_CODE":"US","CLASSIFICATION_TYPE":"U","EPHEMERIS_TYPE":"0","CENTER_NAME":"EARTH","OBJECT_TYPE":"PAYLOAD","INCLINATION":"69.9992","EPOCH":"2023-05-08T20:10:32.617056","TIME_SYSTEM":"UTC","LAUNCH_DATE":"2023-03-17","MEAN_ELEMENT_THEORY":"SGP4","MEAN_ANOMALY":"92.5212","ELEMENT_SET_NO":"999","TLE_LINE2":"2 55960  69.9992  34.6478 0003417 267.5592  92.5212 15.69918652  8364","FILE":"3904305","MEAN_MOTION_DOT":"-0.00000332","REF_FRAME":"TEME","RCS_SIZE":"LARGE","PERIOD":"91.724","TLE_LINE1":"1 55960U 23037AY  23128.84065529 -.00000332  00000-0 -99263-6 0  9990","GP_ID":"231477830","PERIAPSIS":"356.830","DECAY_DATE":null,"APOAPSIS":"361.434","ARG_OF_PERICENTER":"267.5592","SITE":"AFWTR","MEAN_MOTION":"15.69918652","NORAD_CAT_ID":"55960","REV_AT_EPOCH":"836","OBJECT_ID":"2023-037AY","RA_OF_ASC_NODE":"34.6478","OBJECT_NAME":"STARLINK-5938","BSTAR":"-0.00000099263000","ECCENTRICITY":"0.00034170","MEAN_MOTION_DDOT":"0.0000000000000"},{"MEAN_ANOMALY":"90.8506","LAUNCH_DATE":"2023-03-17","MEAN_ELEMENT_THEORY":"SGP4","ELEMENT_SET_NO":"999","TIME_SYSTEM":"UTC","TLE_LINE2":"2 55961  70.0015  34.6497 0003467 269.2292  90.8506 15.69925290  8369","MEAN_MOTION_DOT":"0.00000010","FILE":"3904305","COUNTRY_CODE":"US","CLASSIFICATION_TYPE":"U","SEMIMAJOR_AXIS":"6737.248","CENTER_NAME":"EARTH","EPHEMERIS_TYPE":"0","OBJECT_TYPE":"PAYLOAD","EPOCH":"2023-05-08T20:10:59.320704","INCLINATION":"70.0015","OBJECT_NAME":"STARLINK-5933","RA_OF_ASC_NODE":"34.6497","ECCENTRICITY":"0.00034670","BSTAR":"0.00000185550000","MEAN_MOTION_DDOT":"0.0000000000000","TLE_LINE1":"1 55961U 23037AZ  23128.84096436  .00000010  00000-0  18555-5 0  9997","PERIAPSIS":"356.777","GP_ID":"231476581","REF_FRAME":"TEME","PERIOD":"91.724","RCS_SIZE":"LARGE","APOAPSIS":"361.449","DECAY_DATE":null,"MEAN_MOTION":"15.69925290","NORAD_CAT_ID":"55961","ARG_OF_PERICENTER":"269.2292","SITE":"AFWTR","OBJECT_ID":"2023-037AZ","REV_AT_EPOCH":"836"},{"MEAN_MOTION_DDOT":"0.0000000000000","OBJECT_NAME":"STARLINK-5906","RA_OF_ASC_NODE":"34.6496","ECCENTRICITY":"0.00033370","BSTAR":"0.00000309650000","MEAN_MOTION":"15.69933942","NORAD_CAT_ID":"55962","ARG_OF_PERICENTER":"267.9142","SITE":"AFWTR","OBJECT_ID":"2023-037BA","REV_AT_EPOCH":"836","GP_ID":"231476826","TLE_LINE1":"1 55962U 23037BA  23128.84117130  .00000160  00000-0  30965-5 0  9998","PERIAPSIS":"356.840","REF_FRAME":"TEME","PERIOD":"91.724","RCS_SIZE":"LARGE","APOAPSIS":"361.336","DECAY_DATE":null,"MEAN_MOTION_DOT":"0.00000160","FILE":"3904305","MEAN_ELEMENT_THEORY":"SGP4","LAUNCH_DATE":"2023-03-17","TIME_SYSTEM":"UTC","MEAN_ANOMALY":"92.1671","ELEMENT_SET_NO":"999","TLE_LINE2":"2 55962  70.0016  34.6496 0003337 267.9142  92.1671 15.69933942  8366","OBJECT_TYPE":"PAYLOAD","INCLINATION":"70.0016","EPOCH":"2023-05-08T20:11:17.200320","COUNTRY_CODE":"US","CLASSIFICATION_TYPE":"U","SEMIMAJOR_AXIS":"6737.223","CENTER_NAME":"EARTH","EPHEMERIS_TYPE":"0"},{"ECCENTRICITY":"0.00036610","BSTAR":"-0.00001344500000","RA_OF_ASC_NODE":"34.6492","OBJECT_NAME":"STARLINK-5924","MEAN_MOTION_DDOT":"0.0000000000000","APOAPSIS":"361.546","DECAY_DATE":null,"TLE_LINE1":"1 55963U 23037BB  23128.84127781 -.00001830  00000-0 -13445-4 0  9992","PERIAPSIS":"356.613","GP_ID":"231477583","RCS_SIZE":"LARGE","PERIOD":"91.723","REF_FRAME":"TEME","OBJECT_ID":"2023-037BB","REV_AT_EPOCH":"836","NORAD_CAT_ID":"55963","MEAN_MOTION":"15.69937074","ARG_OF_PERICENTER":"271.9342","SITE":"AFWTR","TLE_LINE2":"2 55963  69.9997  34.6492 0003661 271.9342  88.1434 15.69937074  8367","LAUNCH_DATE":"2023-03-17","MEAN_ANOMALY":"88.1434","TIME_SYSTEM":"UTC","ELEMENT_SET_NO":"999","MEAN_ELEMENT_THEORY":"SGP4","MEAN_MOTION_DOT":"-0.00001830","FILE":"3904305","CENTER_NAME":"EARTH","EPHEMERIS_TYPE":"0","CLASSIFICATION_TYPE":"U","COUNTRY_CODE":"US","SEMIMAJOR_AXIS":"6737.214","INCLINATION":"69.9997","EPOCH":"2023-05-08T20:11:26.402784","OBJECT_TYPE":"PAYLOAD"},{"CENTER_NAME":"EARTH","EPHEMERIS_TYPE":"0","CLASSIFICATION_TYPE":"U","COUNTRY_CODE":"US","SEMIMAJOR_AXIS":"6737.254","EPOCH":"2023-05-08T20:12:21.224448","INCLINATION":"70.0025","OBJECT_TYPE":"PAYLOAD","TLE_LINE2":"2 55964  70.0025  34.6525 0003430 265.1538  94.9267 15.69923250  8366","LAUNCH_DATE":"2023-03-17","MEAN_ELEMENT_THEORY":"SGP4","TIME_SYSTEM":"UTC","MEAN_ANOMALY":"94.9267","ELEMENT_SET_NO":"999","MEAN_MOTION_DOT":"-0.00001286","FILE":"3904305","APOAPSIS":"361.429","DECAY_DATE":null,"GP_ID":"231478331","TLE_LINE1":"1 55964U 23037BC  23128.84191232 -.00001286  00000-0 -89284-5 0  9995","PERIAPSIS":"356.808","RCS_SIZE":"LARGE","PERIOD":"91.724","REF_FRAME":"TEME","OBJECT_ID":"2023-037BC","REV_AT_EPOCH":"836","NORAD_CAT_ID":"55964","MEAN_MOTION":"15.69923250","SITE":"AFWTR","ARG_OF_PERICENTER":"265.1538","ECCENTRICITY":"0.00034300","BSTAR":"-0.00000892840000","OBJECT_NAME":"STARLINK-5895","RA_OF_ASC_NODE":"34.6525","MEAN_MOTION_DDOT":"0.0000000000000"},{"OBJECT_ID":"2023-037BD","REV_AT_EPOCH":"836","NORAD_CAT_ID":"55965","MEAN_MOTION":"15.69930082","SITE":"AFWTR","ARG_OF_PERICENTER":"263.9604","APOAPSIS":"361.176","DECAY_DATE":null,"TLE_LINE1":"1 55965U 23037BD  23128.84075544  .00013751  00000-0  11592-3 0  9996","GP_ID":"231477082","PERIAPSIS":"357.022","RCS_SIZE":"LARGE","PERIOD":"91.724","REF_FRAME":"TEME","MEAN_MOTION_DDOT":"0.0000000000000","ECCENTRICITY":"0.00030830","BSTAR":"0.00011592000000","RA_OF_ASC_NODE":"34.6500","OBJECT_NAME":"STARLINK-5894","INCLINATION":"70.0027","EPOCH":"2023-05-08T20:10:41.270016","OBJECT_TYPE":"PAYLOAD","CENTER_NAME":"EARTH","EPHEMERIS_TYPE":"0","CLASSIFICATION_TYPE":"U","COUNTRY_CODE":"US","SEMIMAJOR_AXIS":"6737.234","MEAN_MOTION_DOT":"0.00013751","FILE":"3904305","TLE_LINE2":"2 55965  70.0027  34.6500 0003083 263.9604  96.1240 15.69930082  8362","LAUNCH_DATE":"2023-03-17","MEAN_ELEMENT_THEORY":"SGP4","MEAN_ANOMALY":"96.1240","TIME_SYSTEM":"UTC","ELEMENT_SET_NO":"999"},{"ECCENTRICITY":"0.00014740","BSTAR":"-0.03240300000000","RA_OF_ASC_NODE":"286.8894","OBJECT_NAME":"STARLINK-5905","MEAN_MOTION_DDOT":"0.0000000000000","APOAPSIS":"476.412","DECAY_DATE":null,"GP_ID":"231477585","TLE_LINE1":"1 55986U 23042A   23128.91667824 -.00886121  00000-0 -32403-1 0  9994","PERIAPSIS":"474.392","REF_FRAME":"TEME","RCS_SIZE":"LARGE","PERIOD":"94.109","OBJECT_ID":"2023-042A","REV_AT_EPOCH":"130","MEAN_MOTION":"15.30138125","NORAD_CAT_ID":"55986","SITE":"AFETR","ARG_OF_PERICENTER":"274.8111","TLE_LINE2":"2 55986  43.0002 286.8894 0001474 274.8111  18.8819 15.30138125  1307","MEAN_ELEMENT_THEORY":"SGP4","LAUNCH_DATE":"2023-03-24","TIME_SYSTEM":"UTC","MEAN_ANOMALY":"18.8819","ELEMENT_SET_NO":"999","MEAN_MOTION_DOT":"-0.00886121","FILE":"3904305","CENTER_NAME":"EARTH","EPHEMERIS_TYPE":"0","COUNTRY_CODE":"US","CLASSIFICATION_TYPE":"U","SEMIMAJOR_AXIS":"6853.537","INCLINATION":"43.0002","EPOCH":"2023-05-08T22:00:00.999936","OBJECT_TYPE":"PAYLOAD"},{"EPOCH":"2023-05-08T22:00:00.999936","INCLINATION":"43.0004","OBJECT_TYPE":"PAYLOAD","CENTER_NAME":"EARTH","EPHEMERIS_TYPE":"0","COUNTRY_CODE":"US","CLASSIFICATION_TYPE":"U","SEMIMAJOR_AXIS":"6849.532","MEAN_MOTION_DOT":"-0.00886196","FILE":"3904171","TLE_LINE2":"2 55987  43.0004 286.7668 0001559 279.7517  64.9295 15.31480291  7419","LAUNCH_DATE":"2023-03-24","MEAN_ELEMENT_THEORY":"SGP4","MEAN_ANOMALY":"64.9295","TIME_SYSTEM":"UTC","ELEMENT_SET_NO":"999","OBJECT_ID":"2023-042B","REV_AT_EPOCH":"741","MEAN_MOTION":"15.31480291","NORAD_CAT_ID":"55987","SITE":"AFETR","ARG_OF_PERICENTER":"279.7517","APOAPSIS":"472.465","DECAY_DATE":null,"GP_ID":"231448593","TLE_LINE1":"1 55987U 23042B   23128.91667824 -.00886196  00000-0 -31071-1 0  9997","PERIAPSIS":"470.329","REF_FRAME":"TEME","PERIOD":"94.027","RCS_SIZE":"LARGE","MEAN_MOTION_DDOT":"0.0000000000000","ECCENTRICITY":"0.00015590","BSTAR":"-0.03107100000000","OBJECT_NAME":"STARLINK-5915","RA_OF_ASC_NODE":"286.7668"}];
